0 FENGYUN 1C DEB
1 32362U 99025CZF 13282.72866097  .00000954  00000-0  12212-2 0  5110
2 32362 099.7598 229.9531 0316697 211.5741 267.4669 13.46550954309979
0 FENGYUN 1C DEB
1 32362U 99025CZF 13287.10069684  .00001177  00000-0  14938-2 0  5131
2 32362 099.7601 234.2189 0316574 200.6623 221.4607 13.46558885310564
0 FENGYUN 1C DEB
1 32362U 99025CZF 13290.07272112  .00001348  00000-0  17024-2 0  5143
2 32362 099.7603 237.1185 0316542 193.2303 228.8287 13.46567392310963
0 FENGYUN 1C DEB
1 32362U 99025CZF 13294.08551049  .00001529  00000-0  19225-2 0  5154
2 32362 099.7601 241.0338 0316615 183.2035 241.5986 13.46578374311508
0 FENGYUN 1C DEB
1 32362U 99025CZF 13296.09189976  .00001605  00000-0  20149-2 0  5166
2 32362 099.7600 242.9913 0316679 178.1830 248.0257 13.46584298311776
